{
    "links": {
        "self": "http://www.neowsapp.com/rest/v1/neo/3717053?api_key=iIulBulltgU6a56xZRHN4H3l9WmuAYTsLGpBGhQ2"
    },
    "id": "3717053",
    "neo_reference_id": "3717053",
    "name": "(2015 HU10)",
    "designation": "2015 HU10",
    "nasa_jpl_url": "http://ssd.jpl.nasa.gov/sbdb.cgi?sstr=3717053",
    "absolute_magnitude_h": 26.8,
    "estimated_diameter": {
        "kilometers": {
            "estimated_diameter_min": 0.0116025908,
            "estimated_diameter_max": 0.0259441818
        },
        "meters": {
            "estimated_diameter_min": 11.6025908209,
            "estimated_diameter_max": 25.9441817907
        },
        "miles": {
            "estimated_diameter_min": 0.0072095135,
            "estimated_diameter_max": 0.0161209622
        },
        "feet": {
            "estimated_diameter_min": 38.066244069,
            "estimated_diameter_max": 85.1187093863
        }
    },
    "is_potentially_hazardous_asteroid": false,
    "close_approach_data": [
        {
            "close_approach_date": "2015-04-18",
            "close_approach_date_full": "2015-Apr-18 02:38",
            "epoch_date_close_approach": 1429324680000,
            "relative_velocity": {
                "kilometers_per_second": "7.0586812295",
                "kilometers_per_hour": "25411.2524260477",
                "miles_per_hour": "15789.5640421739"
            },
            "miss_distance": {
                "astronomical": "0.1241828037",
                "lunar": "48.3071106393",
                "kilometers": "18577482.924148119",
                "miles": "11543512.6092732822"
            },
            "orbiting_body": "Earth"
        }
    ],
    "orbital_data": {
        "orbit_id": "3",
        "orbit_determination_date": "2017-04-06 08:34:10",
        "first_observation_date": "2015-04-18",
        "last_observation_date": "2015-04-22",
        "data_arc_in_days": 4,
        "observations_used": 14,
        "orbit_uncertainty": "9",
        "minimum_orbit_intersection": ".122672",
        "jupiter_tisserand_invariant": "3.732",
        "epoch_osculation": "2457132.5",
        "eccentricity": ".4288295872856415",
        "semi_major_axis": "1.971695010459385",
        "inclination": "10.72232981111149",
        "ascending_node_longitude": "25.17552736523076",
        "orbital_period": "1011.248831987985",
        "perihelion_distance": "1.126173852870928",
        "perihelion_argument": "180.0099287276429",
        "aphelion_distance": "2.817216168047841",
        "perihelion_time": "2457129.346758849746",
        "mean_anomaly": "1.122539555234737",
        "mean_motion": ".3559954668054216",
        "equinox": "J2000",
        "orbit_class": {
            "orbit_class_type": "AMO",
            "orbit_class_description": "Near-Earth asteroid orbits similar to that of 1221 Amor",
            "orbit_class_range": "1.017 AU < q (perihelion) < 1.3 AU"
        }
    },
    "is_sentry_object": false
}